{
  "type": "FeatureCollection",
  "features": [
    {
      "type": "Feature",
      "properties": {
        "norad_id": 2807,
        "name": "OPS 7218 (TRANSIT 16)",
        "group": "nnss",
        "lat": 58.21848249411598,
        "lon": -5.758415587271577,
        "alt_km": 1049.9582223655725,
        "timestamp": "2025-12-21T20:41:08.230404+00:00",
        "meta_object_name": "OPS 7218 (TRANSIT 16)",
        "meta_object_id": "1967-048A",
        "meta_epoch": "2025-12-21T12:16:37.768800",
        "meta_mean_motion": 13.50724076,
        "meta_eccentricity": 0.00221595,
        "meta_inclination": 89.6731,
        "meta_ra_of_asc_node": 353.7252,
        "meta_arg_of_pericenter": 90.6887,
        "meta_mean_anomaly": 65.106,
        "meta_ephemeris_type": 0,
        "meta_classification_type": "U",
        "meta_norad_cat_id": 2807,
        "meta_element_set_no": 999,
        "meta_rev_at_epoch": 88394,
        "meta_bstar": 0.00015311094,
        "meta_mean_motion_dot": 1.09e-06,
        "meta_mean_motion_ddot": 0,
        "tle_line1": "1 02807U 67048A   25355.51154825  .00000109  00000+0  15311-3 0  9996",
        "tle_line2": "2 02807  89.6731 353.7252 0022159  90.6887  65.1060 13.50724076883942"
      },
      "geometry": {
        "type": "Point",
        "coordinates": [
          -5.758415587271577,
          58.21848249411598
        ]
      }
    },
    {
      "type": "Feature",
      "properties": {
        "norad_id": 2965,
        "name": "OPS 4947 (TRANSIT 17)",
        "group": "nnss",
        "lat": -32.637388253048464,
        "lon": -155.7788695252847,
        "alt_km": 1031.0172999074775,
        "timestamp": "2025-12-21T20:41:08.230426+00:00",
        "meta_object_name": "OPS 4947 (TRANSIT 17)",
        "meta_object_id": "1967-092A",
        "meta_epoch": "2025-12-21T14:52:15.199104",
        "meta_mean_motion": 13.53455839,
        "meta_eccentricity": 0.00468159,
        "meta_inclination": 89.2487,
        "meta_ra_of_asc_node": 23.7581,
        "meta_arg_of_pericenter": 208.0887,
        "meta_mean_anomaly": 264.608,
        "meta_ephemeris_type": 0,
        "meta_classification_type": "U",
        "meta_norad_cat_id": 2965,
        "meta_element_set_no": 999,
        "meta_rev_at_epoch": 87217,
        "meta_bstar": 0.00019342072,
        "meta_mean_motion_dot": 1.42e-06,
        "meta_mean_motion_ddot": 0,
        "tle_line1": "1 02965U 67092A   25355.61962036  .00000142  00000+0  19342-3 0  9997",
        "tle_line2": "2 02965  89.2487  23.7581 0046815 208.0887 264.6080 13.53455839872172"
      },
      "geometry": {
        "type": "Point",
        "coordinates": [
          -155.7788695252847,
          -32.637388253048464
        ]
      }
    },
    {
      "type": "Feature",
      "properties": {
        "norad_id": 3133,
        "name": "OPS 7034 (TRANSIT 18)",
        "group": "nnss",
        "lat": -59.989298290333466,
        "lon": -86.28602051080064,
        "alt_km": 1124.9194945901681,
        "timestamp": "2025-12-21T20:41:08.230437+00:00",
        "meta_object_name": "OPS 7034 (TRANSIT 18)",
        "meta_object_id": "1968-012A",
        "meta_epoch": "2025-12-21T09:08:20.853024",
        "meta_mean_motion": 13.51567661,
        "meta_eccentricity": 0.00746733,
        "meta_inclination": 90.0284,
        "meta_ra_of_asc_node": 273.6634,
        "meta_arg_of_pericenter": 144.2515,
        "meta_mean_anomaly": 336.0028,
        "meta_ephemeris_type": 0,
        "meta_classification_type": "U",
        "meta_norad_cat_id": 3133,
        "meta_element_set_no": 999,
        "meta_rev_at_epoch": 57035,
        "meta_bstar": 0.00018665898,
        "meta_mean_motion_dot": 1.34e-06,
        "meta_mean_motion_ddot": 0,
        "tle_line1": "1 03133U 68012A   25355.38079691  .00000134  00000+0  18666-3 0  9997",
        "tle_line2": "2 03133  90.0284 273.6634 0074673 144.2515 336.0028 13.51567661570358"
      },
      "geometry": {
        "type": "Point",
        "coordinates": [
          -86.28602051080064,
          -59.989298290333466
        ]
      }
    },
    {
      "type": "Feature",
      "properties": {
        "norad_id": 4507,
        "name": "NNSS 19 (TRANSIT 19)",
        "group": "nnss",
        "lat": -82.85619880768807,
        "lon": 54.50022227357966,
        "alt_km": 948.4046073467889,
        "timestamp": "2025-12-21T20:41:08.230448+00:00",
        "meta_object_name": "NNSS 19 (TRANSIT 19)",
        "meta_object_id": "1970-067A",
        "meta_epoch": "2025-12-21T14:02:49.659936",
        "meta_mean_motion": 13.51316822,
        "meta_eccentricity": 0.01702248,
        "meta_inclination": 90.005,
        "meta_ra_of_asc_node": 234.54,
        "meta_arg_of_pericenter": 267.492,
        "meta_mean_anomaly": 90.6736,
        "meta_ephemeris_type": 0,
        "meta_classification_type": "U",
        "meta_norad_cat_id": 4507,
        "meta_element_set_no": 999,
        "meta_rev_at_epoch": 72341,
        "meta_bstar": 0.00014810801,
        "meta_mean_motion_dot": 1.13e-06,
        "meta_mean_motion_ddot": 0,
        "tle_line1": "1 04507U 70067A   25355.58529699  .00000113  00000+0  14811-3 0  9991",
        "tle_line2": "2 04507  90.0050 234.5400 0170224 267.4920  90.6736 13.51316822723416"
      },
      "geometry": {
        "type": "Point",
        "coordinates": [
          54.50022227357966,
          -82.85619880768807
        ]
      }
    },
    {
      "type": "Feature",
      "properties": {
        "norad_id": 6909,
        "name": "NNSS 20 (TRANSIT 20)",
        "group": "nnss",
        "lat": -85.78054374478292,
        "lon": -107.03321197916911,
        "alt_km": 1085.4549164015953,
        "timestamp": "2025-12-21T20:41:08.230458+00:00",
        "meta_object_name": "NNSS 20 (TRANSIT 20)",
        "meta_object_id": "1973-081A",
        "meta_epoch": "2025-12-21T10:35:52.643328",
        "meta_mean_motion": 13.71438625,
        "meta_eccentricity": 0.01563694,
        "meta_inclination": 89.8562,
        "meta_ra_of_asc_node": 254.9238,
        "meta_arg_of_pericenter": 52.5426,
        "meta_mean_anomaly": 308.9843,
        "meta_ephemeris_type": 0,
        "meta_classification_type": "U",
        "meta_norad_cat_id": 6909,
        "meta_element_set_no": 999,
        "meta_rev_at_epoch": 80480,
        "meta_bstar": 0.0002565532,
        "meta_mean_motion_dot": 2.63e-06,
        "meta_mean_motion_ddot": 0,
        "tle_line1": "1 06909U 73081A   25355.44158152  .00000263  00000+0  25655-3 0  9999",
        "tle_line2": "2 06909  89.8562 254.9238 0156369  52.5426 308.9843 13.71438625804806"
      },
      "geometry": {
        "type": "Point",
        "coordinates": [
          -107.03321197916911,
          -85.78054374478292
        ]
      }
    },
    {
      "type": "Feature",
      "properties": {
        "norad_id": 10457,
        "name": "TRANSAT",
        "group": "nnss",
        "lat": -10.44723546842601,
        "lon": -101.66095382033315,
        "alt_km": 1062.9083271322288,
        "timestamp": "2025-12-21T20:41:08.230469+00:00",
        "meta_object_name": "TRANSAT",
        "meta_object_id": "1977-106A",
        "meta_epoch": "2025-12-21T12:40:51.231936",
        "meta_mean_motion": 13.48944882,
        "meta_eccentricity": 0.00262265,
        "meta_inclination": 89.6479,
        "meta_ra_of_asc_node": 78.2859,
        "meta_arg_of_pericenter": 164.3801,
        "meta_mean_anomaly": 207.0891,
        "meta_ephemeris_type": 0,
        "meta_classification_type": "U",
        "meta_norad_cat_id": 10457,
        "meta_element_set_no": 999,
        "meta_rev_at_epoch": 36862,
        "meta_bstar": 0.0001296619,
        "meta_mean_motion_dot": 9.2e-07,
        "meta_mean_motion_ddot": 0,
        "tle_line1": "1 10457U 77106A   25355.52837074  .00000092  00000+0  12966-3 0  9991",
        "tle_line2": "2 10457  89.6479  78.2859 0026226 164.3801 207.0891 13.48944882368625"
      },
      "geometry": {
        "type": "Point",
        "coordinates": [
          -101.66095382033315,
          -10.44723546842601
        ]
      }
    },
    {
      "type": "Feature",
      "properties": {
        "norad_id": 12458,
        "name": "NOVA 1",
        "group": "nnss",
        "lat": -30.23810504870848,
        "lon": 91.17038684729619,
        "alt_km": 1182.5402087962548,
        "timestamp": "2025-12-21T20:41:08.230479+00:00",
        "meta_object_name": "NOVA 1",
        "meta_object_id": "1981-044A",
        "meta_epoch": "2025-12-21T08:29:23.478144",
        "meta_mean_motion": 13.23279339,
        "meta_eccentricity": 0.0015835,
        "meta_inclination": 89.8527,
        "meta_ra_of_asc_node": 91.2635,
        "meta_arg_of_pericenter": 82.8153,
        "meta_mean_anomaly": 347.8596,
        "meta_ephemeris_type": 0,
        "meta_classification_type": "U",
        "meta_norad_cat_id": 12458,
        "meta_element_set_no": 999,
        "meta_rev_at_epoch": 15300,
        "meta_bstar": 0.00010563005,
        "meta_mean_motion_dot": 5.4e-07,
        "meta_mean_motion_ddot": 0,
        "tle_line1": "1 12458U 81044A   25355.35374396  .00000054  00000+0  10563-3 0  9993",
        "tle_line2": "2 12458  89.8527  91.2635 0015835  82.8153 347.8596 13.23279339153009"
      },
      "geometry": {
        "type": "Point",
        "coordinates": [
          91.17038684729619,
          -30.23810504870848
        ]
      }
    }
  ]
}